{"epoch":1784710044,"count":18256,"objects":[{"id":"43765","name":"HAWK-A","type":"PAYLOAD","l1":"1 43765U 18099H   26202.40639025  .00005525  00000-0  22034-3 0  9994","l2":"2 43765  97.3892 254.2005 0035337 162.3376 197.9099 15.25016424418313"},{"id":"43794","name":"HAWK-B","type":"PAYLOAD","l1":"1 43794U 18099AN  26202.60049331  .00005568  00000-0  23538-3 0  9990","l2":"2 43794  97.3942 253.7343 0032029 179.4965 180.6310 15.23164138418272"},{"id":"43799","name":"HAWK-C","type":"PAYLOAD","l1":"1 43799U 18099AT  26202.56652674  .00008017  00000-0  28410-3 0  9996","l2":"2 43799  97.3868 255.4422 0040946 161.4729 198.8013 15.28558436419160"},{"id":"47502","name":"HAWK-2C","type":"PAYLOAD","l1":"1 47502U 21006CT  26202.57507515  .00005702  00000-0  16985-3 0  9990","l2":"2 47502  97.2261 246.2039 0008640  82.8925 277.3301 15.35041093304770"},{"id":"47505","name":"HAWK-2A","type":"PAYLOAD","l1":"1 47505U 21006CW  26202.57720994  .00006094  00000-0  18127-3 0  9996","l2":"2 47505  97.2302 246.9037 0008209  86.4993 273.7190 15.35063913304771"},{"id":"47508","name":"HAWK-2B","type":"PAYLOAD","l1":"1 47508U 21006CZ  26202.57019771  .00006457  00000-0  19108-3 0  9996","l2":"2 47508  97.2176 245.1750 0008733  84.7655 275.4585 15.35195414304773"},{"id":"48931","name":"HAWK-3B","type":"PAYLOAD","l1":"1 48931U 21059BE  26202.52919669  .00045439  00000-0  34397-3 0  9995","l2":"2 48931  97.6636  42.5580 0004947 176.4381 183.6918 15.72272829283242"},{"id":"48948","name":"HAWK-3C","type":"PAYLOAD","l1":"1 48948U 21059BX  26202.52887895  .00043405  00000-0  32868-3 0  9990","l2":"2 48948  97.6749  48.3011 0005324 176.3100 183.8203 15.72270850283247"},{"id":"48957","name":"HAWK-3A","type":"PAYLOAD","l1":"1 48957U 21059CG  26202.08324934  .00037085  00000-0  28164-3 0  9992","l2":"2 48957  97.6699  44.9888 0005099 180.1984 179.9277 15.72234327283175"},{"id":"52754","name":"HAWK-5C","type":"PAYLOAD","l1":"1 52754U 22057Y   26202.40998415  .00014365  00000-0  23639-3 0  9996","l2":"2 52754  97.6630   4.3201 0002375 315.1982  44.9078 15.52470066231657"},{"id":"52756","name":"HAWK-5B","type":"PAYLOAD","l1":"1 52756U 22057AA  26202.34535949  .00014270  00000-0  23489-3 0  9998","l2":"2 52756  97.6641   2.6058 0003045 301.4147  58.6807 15.52463503231647"},{"id":"52757","name":"HAWK-5A","type":"PAYLOAD","l1":"1 52757U 22057AB  26201.95841727  .00013382  00000-0  22047-3 0  9991","l2":"2 52757  97.6637   3.0231 0002943 309.8300  50.2692 15.52455151231583"},{"id":"55324","name":"HAWK-6B","type":"PAYLOAD","l1":"1 55324U 23011A   26202.21396356  .00003272  00000-0  14359-3 0  9992","l2":"2 55324  40.4981 153.5607 0004584 270.8827  89.1457 15.23188223193034"},{"id":"55326","name":"HAWK-6C","type":"PAYLOAD","l1":"1 55326U 23011C   26202.54115568  .00003600  00000-0  15715-3 0  9996","l2":"2 55326  40.4970 148.4867 0005082 267.3990  92.6238 15.23191156193092"},{"id":"55327","name":"HAWK-6A","type":"PAYLOAD","l1":"1 55327U 23011D   26202.21336814  .00003239  00000-0  14221-3 0  9999","l2":"2 55327  40.4979 152.0272 0004771 262.7160  97.3107 15.23188189193049"},{"id":"56191","name":"HAWK-7A","type":"PAYLOAD","l1":"1 56191U 23054P   26202.63277282  .00004550  00000-0  17089-3 0  9997","l2":"2 56191  97.2651  89.0940 0000980 285.0813  75.0318 15.27677004182282"}]}